[{"OBJECT_NAME":"STARLINK-31487","OBJECT_ID":"2024-056B","EPOCH":"2026-03-09T12:07:28.797024","MEAN_MOTION":15.27601209,"ECCENTRICITY":0.00018212,"INCLINATION":43.0054,"RA_OF_ASC_NODE":231.9648,"ARG_OF_PERICENTER":256.8668,"MEAN_ANOMALY":103.1981,"EPHEMERIS_TYPE":0,"CLASSIFICATION_TYPE":"U","NORAD_CAT_ID":59297,"ELEMENT_SET_NO":999,"REV_AT_EPOCH":11124,"BSTAR":4.6195658e-5,"MEAN_MOTION_DOT":1.01e-5,"MEAN_MOTION_DDOT":0},{"OBJECT_NAME":"OBJECT F","OBJECT_ID":"2021-022F","EPOCH":"2026-03-09T23:37:37.165152","MEAN_MOTION":15.31317672,"ECCENTRICITY":0.00120882,"INCLINATION":97.3982,"RA_OF_ASC_NODE":329.8375,"ARG_OF_PERICENTER":85.9268,"MEAN_ANOMALY":274.3355,"EPHEMERIS_TYPE":0,"CLASSIFICATION_TYPE":"U","NORAD_CAT_ID":47937,"ELEMENT_SET_NO":999,"REV_AT_EPOCH":27452,"BSTAR":0.00038690553,"MEAN_MOTION_DOT":0.00011656,"MEAN_MOTION_DDOT":0}]
